GLOBALSTAR M063         
1 26081U 00008A   24235.16612553 -.00000088  00000+0 -73412-4 0  9998
2 26081  51.9934 179.0779 0004625  94.6782 278.6518 11.86159844122091
GLOBALSTAR M062         
1 26082U 00008B   24235.51710997 -.00000039  00000+0  42060-3 0  9998
2 26082  51.9823 254.0688 0007125 193.9895 298.7016 12.43443641459463
GLOBALSTAR M060         
1 26083U 00008C   24235.53728450 -.00000173  00000+0 -81951-3 0  9996
2 26083  52.0010 171.7634 0003018 243.0878 288.4978 12.17638261115989
GLOBALSTAR M064         
1 26084U 00008D   24235.42063605 -.00000067  00000+0  23577-3 0  9990
2 26084  52.0018 280.7630 0001626 192.9603 167.1188 11.88521327131576
GLOBALSTAR M065         
1 31571U 07020A   24235.26496221 -.00000145  00000+0 -23269-3 0  9990
2 31571  51.9901  56.0684 0010284   9.4167 162.1076 12.61974628795667
GLOBALSTAR M069         
1 31573U 07020C   24235.54019319 -.00000077  00000+0  15083-3 0  9990
2 31573  51.9975  10.9759 0000907 115.9986 321.6501 12.62246489796838
GLOBALSTAR M072         
1 31574U 07020D   24235.39836248 -.00000071  00000+0  18485-3 0  9995
2 31574  52.0075 107.4065 0001105  54.0019 117.5081 12.62262011795085
GLOBALSTAR M071         
1 31576U 07020F   24235.56669656 -.00000072  00000+0  17821-3 0  9997
2 31576  52.0093  16.1118 0001249 135.0335 303.5310 12.62273008458022
